[{"OBJECT_NAME":"STARLINK-4343","OBJECT_ID":"2022-077H","EPOCH":"2026-03-09T22:32:47.646240","MEAN_MOTION":15.05646071,"ECCENTRICITY":0.00014833,"INCLINATION":97.6028,"RA_OF_ASC_NODE":251.4413,"ARG_OF_PERICENTER":85.0971,"MEAN_ANOMALY":275.0426,"EPHEMERIS_TYPE":0,"CLASSIFICATION_TYPE":"U","NORAD_CAT_ID":53050,"ELEMENT_SET_NO":999,"REV_AT_EPOCH":20101,"BSTAR":1.993622e-5,"MEAN_MOTION_DOT":2.27e-6,"MEAN_MOTION_DDOT":0},{"OBJECT_NAME":"FENGYUN 1C DEB","OBJECT_ID":"1999-025CKD","EPOCH":"2026-02-28T13:50:26.166336","MEAN_MOTION":14.88090782,"ECCENTRICITY":0.00820173,"INCLINATION":99.4445,"RA_OF_ASC_NODE":2.7077,"ARG_OF_PERICENTER":355.7359,"MEAN_ANOMALY":4.3144,"EPHEMERIS_TYPE":0,"CLASSIFICATION_TYPE":"U","NORAD_CAT_ID":31878,"ELEMENT_SET_NO":999,"REV_AT_EPOCH":99250,"BSTAR":0.001844343,"MEAN_MOTION_DOT":0.00018017,"MEAN_MOTION_DDOT":0}]
